[{"OBJECT_NAME":"STARLINK-6065","OBJECT_ID":"2023-078AX","EPOCH":"2026-03-09T22:30:16.756416","MEAN_MOTION":14.98329897,"ECCENTRICITY":0.00029586,"INCLINATION":69.9999,"RA_OF_ASC_NODE":323.7173,"ARG_OF_PERICENTER":270.2729,"MEAN_ANOMALY":89.8091,"EPHEMERIS_TYPE":0,"CLASSIFICATION_TYPE":"U","NORAD_CAT_ID":56812,"ELEMENT_SET_NO":999,"REV_AT_EPOCH":15321,"BSTAR":5.9991108e-5,"MEAN_MOTION_DOT":6.23e-6,"MEAN_MOTION_DDOT":0},{"OBJECT_NAME":"CZ-4B DEB","OBJECT_ID":"2006-046E","EPOCH":"2026-03-09T15:05:34.126944","MEAN_MOTION":15.05038248,"ECCENTRICITY":0.0035443,"INCLINATION":97.6504,"RA_OF_ASC_NODE":126.4986,"ARG_OF_PERICENTER":210.976,"MEAN_ANOMALY":148.9377,"EPHEMERIS_TYPE":0,"CLASSIFICATION_TYPE":"U","NORAD_CAT_ID":29509,"ELEMENT_SET_NO":999,"REV_AT_EPOCH":5351,"BSTAR":0.00027248,"MEAN_MOTION_DOT":3.86e-5,"MEAN_MOTION_DDOT":0}]
